{
  "Code": "79",
  "Name": "Hồ Chí Minh",
  "NameEn": "Ho Chi Minh",
  "FullName": "Thành phố Hồ Chí Minh",
  "FullNameEn": "Ho Chi Minh City",
  "CodeName": "ho_chi_minh",
  "Wards": [
    {
      "Code": "25747",
      "Name": "Thủ Dầu Một",
      "NameEn": "Thu Dau Mot",
      "FullName": "Phường Thủ Dầu Một",
      "FullNameEn": "Thu Dau Mot Ward",
      "CodeName": "thu_dau_mot",
      "ProvinceCode": "79"
    },
    {
      "Code": "25750",
      "Name": "Phú Lợi",
      "NameEn": "Phu Loi",
      "FullName": "Phường Phú Lợi",
      "FullNameEn": "Phu Loi Ward",
      "CodeName": "phu_loi",
      "ProvinceCode": "79"
    },
    {
      "Code": "25760",
      "Name": "Bình Dương",
      "NameEn": "Binh Duong",
      "FullName": "Phường Bình Dương",
      "FullNameEn": "Binh Duong Ward",
      "CodeName": "binh_duong",
      "ProvinceCode": "79"
    },
    {
      "Code": "25768",
      "Name": "Phú An",
      "NameEn": "Phu An",
      "FullName": "Phường Phú An",
      "FullNameEn": "Phu An Ward",
      "CodeName": "phu_an",
      "ProvinceCode": "79"
    },
    {
      "Code": "25771",
      "Name": "Chánh Hiệp",
      "NameEn": "Chanh Hiep",
      "FullName": "Phường Chánh Hiệp",
      "FullNameEn": "Chanh Hiep Ward",
      "CodeName": "chanh_hiep",
      "ProvinceCode": "79"
    },
    {
      "Code": "25813",
      "Name": "Bến Cát",
      "NameEn": "Ben Cat",
      "FullName": "Phường Bến Cát",
      "FullNameEn": "Ben Cat Ward",
      "CodeName": "ben_cat",
      "ProvinceCode": "79"
    },
    {
      "Code": "25837",
      "Name": "Chánh Phú Hòa",
      "NameEn": "Chanh Phu Hoa",
      "FullName": "Phường Chánh Phú Hòa",
      "FullNameEn": "Chanh Phu Hoa Ward",
      "CodeName": "chanh_phu_hoa",
      "ProvinceCode": "79"
    },
    {
      "Code": "25840",
      "Name": "Long Nguyên",
      "NameEn": "Long Nguyen",
      "FullName": "Phường Long Nguyên",
      "FullNameEn": "Long Nguyen Ward",
      "CodeName": "long_nguyen",
      "ProvinceCode": "79"
    },
    {
      "Code": "25843",
      "Name": "Tây Nam",
      "NameEn": "Tay Nam",
      "FullName": "Phường Tây Nam",
      "FullNameEn": "Tay Nam Ward",
      "CodeName": "tay_nam",
      "ProvinceCode": "79"
    },
    {
      "Code": "25846",
      "Name": "Thới Hòa",
      "NameEn": "Thoi Hoa",
      "FullName": "Phường Thới Hòa",
      "FullNameEn": "Thoi Hoa Ward",
      "CodeName": "thoi_hoa",
      "ProvinceCode": "79"
    },
    {
      "Code": "25849",
      "Name": "Hòa Lợi",
      "NameEn": "Hoa Loi",
      "FullName": "Phường Hòa Lợi",
      "FullNameEn": "Hoa Loi Ward",
      "CodeName": "hoa_loi",
      "ProvinceCode": "79"
    },
    {
      "Code": "25888",
      "Name": "Tân Uyên",
      "NameEn": "Tan Uyen",
      "FullName": "Phường Tân Uyên",
      "FullNameEn": "Tan Uyen Ward",
      "CodeName": "tan_uyen",
      "ProvinceCode": "79"
    },
    {
      "Code": "25891",
      "Name": "Tân Khánh",
      "NameEn": "Tan Khanh",
      "FullName": "Phường Tân Khánh",
      "FullNameEn": "Tan Khanh Ward",
      "CodeName": "tan_khanh",
      "ProvinceCode": "79"
    },
    {
      "Code": "25912",
      "Name": "Vĩnh Tân",
      "NameEn": "Vinh Tan",
      "FullName": "Phường Vĩnh Tân",
      "FullNameEn": "Vinh Tan Ward",
      "CodeName": "vinh_tan",
      "ProvinceCode": "79"
    },
    {
      "Code": "25915",
      "Name": "Bình Cơ",
      "NameEn": "Binh Co",
      "FullName": "Phường Bình Cơ",
      "FullNameEn": "Binh Co Ward",
      "CodeName": "binh_co",
      "ProvinceCode": "79"
    },
    {
      "Code": "25920",
      "Name": "Tân Hiệp",
      "NameEn": "Tan Hiep",
      "FullName": "Phường Tân Hiệp",
      "FullNameEn": "Tan Hiep Ward",
      "CodeName": "tan_hiep",
      "ProvinceCode": "79"
    },
    {
      "Code": "25942",
      "Name": "Dĩ An",
      "NameEn": "Di An",
      "FullName": "Phường Dĩ An",
      "FullNameEn": "Di An Ward",
      "CodeName": "di_an",
      "ProvinceCode": "79"
    },
    {
      "Code": "25945",
      "Name": "Tân Đông Hiệp",
      "NameEn": "Tan Dong Hiep",
      "FullName": "Phường Tân Đông Hiệp",
      "FullNameEn": "Tan Dong Hiep Ward",
      "CodeName": "tan_dong_hiep",
      "ProvinceCode": "79"
    },
    {
      "Code": "25951",
      "Name": "Đông Hòa",
      "NameEn": "Dong Hoa",
      "FullName": "Phường Đông Hòa",
      "FullNameEn": "Dong Hoa Ward",
      "CodeName": "dong_hoa",
      "ProvinceCode": "79"
    },
    {
      "Code": "25966",
      "Name": "Lái Thiêu",
      "NameEn": "Lai Thieu",
      "FullName": "Phường Lái Thiêu",
      "FullNameEn": "Lai Thieu Ward",
      "CodeName": "lai_thieu",
      "ProvinceCode": "79"
    },
    {
      "Code": "25969",
      "Name": "Thuận Giao",
      "NameEn": "Thuan Giao",
      "FullName": "Phường Thuận Giao",
      "FullNameEn": "Thuan Giao Ward",
      "CodeName": "thuan_giao",
      "ProvinceCode": "79"
    },
    {
      "Code": "25975",
      "Name": "An Phú",
      "NameEn": "An Phu",
      "FullName": "Phường An Phú",
      "FullNameEn": "An Phu Ward",
      "CodeName": "an_phu",
      "ProvinceCode": "79"
    },
    {
      "Code": "25978",
      "Name": "Thuận An",
      "NameEn": "Thuan An",
      "FullName": "Phường Thuận An",
      "FullNameEn": "Thuan An Ward",
      "CodeName": "thuan_an",
      "ProvinceCode": "79"
    },
    {
      "Code": "25987",
      "Name": "Bình Hòa",
      "NameEn": "Binh Hoa",
      "FullName": "Phường Bình Hòa",
      "FullNameEn": "Binh Hoa Ward",
      "CodeName": "binh_hoa",
      "ProvinceCode": "79"
    },
    {
      "Code": "26506",
      "Name": "Vũng Tàu",
      "NameEn": "Vung Tau",
      "FullName": "Phường Vũng Tàu",
      "FullNameEn": "Vung Tau Ward",
      "CodeName": "vung_tau",
      "ProvinceCode": "79"
    },
    {
      "Code": "26526",
      "Name": "Tam Thắng",
      "NameEn": "Tam Thang",
      "FullName": "Phường Tam Thắng",
      "FullNameEn": "Tam Thang Ward",
      "CodeName": "tam_thang",
      "ProvinceCode": "79"
    },
    {
      "Code": "26536",
      "Name": "Rạch Dừa",
      "NameEn": "Rach Dua",
      "FullName": "Phường Rạch Dừa",
      "FullNameEn": "Rach Dua Ward",
      "CodeName": "rach_dua",
      "ProvinceCode": "79"
    },
    {
      "Code": "26542",
      "Name": "Phước Thắng",
      "NameEn": "Phuoc Thang",
      "FullName": "Phường Phước Thắng",
      "FullNameEn": "Phuoc Thang Ward",
      "CodeName": "phuoc_thang",
      "ProvinceCode": "79"
    },
    {
      "Code": "26560",
      "Name": "Bà Rịa",
      "NameEn": "Ba Ria",
      "FullName": "Phường Bà Rịa",
      "FullNameEn": "Ba Ria Ward",
      "CodeName": "ba_ria",
      "ProvinceCode": "79"
    },
    {
      "Code": "26566",
      "Name": "Long Hương",
      "NameEn": "Long Huong",
      "FullName": "Phường Long Hương",
      "FullNameEn": "Long Huong Ward",
      "CodeName": "long_huong",
      "ProvinceCode": "79"
    },
    {
      "Code": "26572",
      "Name": "Tam Long",
      "NameEn": "Tam Long",
      "FullName": "Phường Tam Long",
      "FullNameEn": "Tam Long Ward",
      "CodeName": "tam_long",
      "ProvinceCode": "79"
    },
    {
      "Code": "26704",
      "Name": "Phú Mỹ",
      "NameEn": "Phu My",
      "FullName": "Phường Phú Mỹ",
      "FullNameEn": "Phu My Ward",
      "CodeName": "phu_my",
      "ProvinceCode": "79"
    },
    {
      "Code": "26710",
      "Name": "Tân Hải",
      "NameEn": "Tan Hai",
      "FullName": "Phường Tân Hải",
      "FullNameEn": "Tan Hai Ward",
      "CodeName": "tan_hai",
      "ProvinceCode": "79"
    },
    {
      "Code": "26713",
      "Name": "Tân Phước",
      "NameEn": "Tan Phuoc",
      "FullName": "Phường Tân Phước",
      "FullNameEn": "Tan Phuoc Ward",
      "CodeName": "tan_phuoc",
      "ProvinceCode": "79"
    },
    {
      "Code": "26725",
      "Name": "Tân Thành",
      "NameEn": "Tan Thanh",
      "FullName": "Phường Tân Thành",
      "FullNameEn": "Tan Thanh Ward",
      "CodeName": "tan_thanh",
      "ProvinceCode": "79"
    },
    {
      "Code": "26737",
      "Name": "Tân Định",
      "NameEn": "Tan Dinh",
      "FullName": "Phường Tân Định",
      "FullNameEn": "Tan Dinh Ward",
      "CodeName": "tan_dinh",
      "ProvinceCode": "79"
    },
    {
      "Code": "26740",
      "Name": "Sài Gòn",
      "NameEn": "Sai Gon",
      "FullName": "Phường Sài Gòn",
      "FullNameEn": "Sai Gon Ward",
      "CodeName": "sai_gon",
      "ProvinceCode": "79"
    },
    {
      "Code": "26743",
      "Name": "Bến Thành",
      "NameEn": "Ben Thanh",
      "FullName": "Phường Bến Thành",
      "FullNameEn": "Ben Thanh Ward",
      "CodeName": "ben_thanh",
      "ProvinceCode": "79"
    },
    {
      "Code": "26758",
      "Name": "Cầu Ông Lãnh",
      "NameEn": "Cau Ong Lanh",
      "FullName": "Phường Cầu Ông Lãnh",
      "FullNameEn": "Cau Ong Lanh Ward",
      "CodeName": "cau_ong_lanh",
      "ProvinceCode": "79"
    },
    {
      "Code": "26767",
      "Name": "An Phú Đông",
      "NameEn": "An Phu Dong",
      "FullName": "Phường An Phú Đông",
      "FullNameEn": "An Phu Dong Ward",
      "CodeName": "an_phu_dong",
      "ProvinceCode": "79"
    },
    {
      "Code": "26773",
      "Name": "Thới An",
      "NameEn": "Thoi An",
      "FullName": "Phường Thới An",
      "FullNameEn": "Thoi An Ward",
      "CodeName": "thoi_an",
      "ProvinceCode": "79"
    },
    {
      "Code": "26782",
      "Name": "Tân Thới Hiệp",
      "NameEn": "Tan Thoi Hiep",
      "FullName": "Phường Tân Thới Hiệp",
      "FullNameEn": "Tan Thoi Hiep Ward",
      "CodeName": "tan_thoi_hiep",
      "ProvinceCode": "79"
    },
    {
      "Code": "26785",
      "Name": "Trung Mỹ Tây",
      "NameEn": "Trung My Tay",
      "FullName": "Phường Trung Mỹ Tây",
      "FullNameEn": "Trung My Tay Ward",
      "CodeName": "trung_my_tay",
      "ProvinceCode": "79"
    },
    {
      "Code": "26791",
      "Name": "Đông Hưng Thuận",
      "NameEn": "Dong Hung Thuan",
      "FullName": "Phường Đông Hưng Thuận",
      "FullNameEn": "Dong Hung Thuan Ward",
      "CodeName": "dong_hung_thuan",
      "ProvinceCode": "79"
    },
    {
      "Code": "26800",
      "Name": "Linh Xuân",
      "NameEn": "Linh Xuan",
      "FullName": "Phường Linh Xuân",
      "FullNameEn": "Linh Xuan Ward",
      "CodeName": "linh_xuan",
      "ProvinceCode": "79"
    },
    {
      "Code": "26803",
      "Name": "Tam Bình",
      "NameEn": "Tam Binh",
      "FullName": "Phường Tam Bình",
      "FullNameEn": "Tam Binh Ward",
      "CodeName": "tam_binh",
      "ProvinceCode": "79"
    },
    {
      "Code": "26809",
      "Name": "Hiệp Bình",
      "NameEn": "Hiep Binh",
      "FullName": "Phường Hiệp Bình",
      "FullNameEn": "Hiep Binh Ward",
      "CodeName": "hiep_binh",
      "ProvinceCode": "79"
    },
    {
      "Code": "26824",
      "Name": "Thủ Đức",
      "NameEn": "Thu Duc",
      "FullName": "Phường Thủ Đức",
      "FullNameEn": "Thu Duc Ward",
      "CodeName": "thu_duc",
      "ProvinceCode": "79"
    },
    {
      "Code": "26833",
      "Name": "Long Bình",
      "NameEn": "Long Binh",
      "FullName": "Phường Long Bình",
      "FullNameEn": "Long Binh Ward",
      "CodeName": "long_binh",
      "ProvinceCode": "79"
    },
    {
      "Code": "26842",
      "Name": "Tăng Nhơn Phú",
      "NameEn": "Tang Nhon Phu",
      "FullName": "Phường Tăng Nhơn Phú",
      "FullNameEn": "Tang Nhon Phu Ward",
      "CodeName": "tang_nhon_phu",
      "ProvinceCode": "79"
    },
    {
      "Code": "26848",
      "Name": "Phước Long",
      "NameEn": "Phuoc Long",
      "FullName": "Phường Phước Long",
      "FullNameEn": "Phuoc Long Ward",
      "CodeName": "phuoc_long",
      "ProvinceCode": "79"
    },
    {
      "Code": "26857",
      "Name": "Long Phước",
      "NameEn": "Long Phuoc",
      "FullName": "Phường Long Phước",
      "FullNameEn": "Long Phuoc Ward",
      "CodeName": "long_phuoc",
      "ProvinceCode": "79"
    },
    {
      "Code": "26860",
      "Name": "Long Trường",
      "NameEn": "Long Truong",
      "FullName": "Phường Long Trường",
      "FullNameEn": "Long Truong Ward",
      "CodeName": "long_truong",
      "ProvinceCode": "79"
    },
    {
      "Code": "26876",
      "Name": "An Nhơn",
      "NameEn": "An Nhon",
      "FullName": "Phường An Nhơn",
      "FullNameEn": "An Nhon Ward",
      "CodeName": "an_nhon",
      "ProvinceCode": "79"
    },
    {
      "Code": "26878",
      "Name": "An Hội Đông",
      "NameEn": "An Hoi Dong",
      "FullName": "Phường An Hội Đông",
      "FullNameEn": "An Hoi Dong Ward",
      "CodeName": "an_hoi_dong",
      "ProvinceCode": "79"
    },
    {
      "Code": "26882",
      "Name": "An Hội Tây",
      "NameEn": "An Hoi Tay",
      "FullName": "Phường An Hội Tây",
      "FullNameEn": "An Hoi Tay Ward",
      "CodeName": "an_hoi_tay",
      "ProvinceCode": "79"
    },
    {
      "Code": "26884",
      "Name": "Gò Vấp",
      "NameEn": "Go Vap",
      "FullName": "Phường Gò Vấp",
      "FullNameEn": "Go Vap Ward",
      "CodeName": "go_vap",
      "ProvinceCode": "79"
    },
    {
      "Code": "26890",
      "Name": "Hạnh Thông",
      "NameEn": "Hanh Thong",
      "FullName": "Phường Hạnh Thông",
      "FullNameEn": "Hanh Thong Ward",
      "CodeName": "hanh_thong",
      "ProvinceCode": "79"
    },
    {
      "Code": "26898",
      "Name": "Thông Tây Hội",
      "NameEn": "Thong Tay Hoi",
      "FullName": "Phường Thông Tây Hội",
      "FullNameEn": "Thong Tay Hoi Ward",
      "CodeName": "thong_tay_hoi",
      "ProvinceCode": "79"
    },
    {
      "Code": "26905",
      "Name": "Bình Lợi Trung",
      "NameEn": "Binh Loi Trung",
      "FullName": "Phường Bình Lợi Trung",
      "FullNameEn": "Binh Loi Trung Ward",
      "CodeName": "binh_loi_trung",
      "ProvinceCode": "79"
    },
    {
      "Code": "26911",
      "Name": "Bình Quới",
      "NameEn": "Binh Quoi",
      "FullName": "Phường Bình Quới",
      "FullNameEn": "Binh Quoi Ward",
      "CodeName": "binh_quoi",
      "ProvinceCode": "79"
    },
    {
      "Code": "26929",
      "Name": "Bình Thạnh",
      "NameEn": "Binh Thanh",
      "FullName": "Phường Bình Thạnh",
      "FullNameEn": "Binh Thanh Ward",
      "CodeName": "binh_thanh",
      "ProvinceCode": "79"
    },
    {
      "Code": "26944",
      "Name": "Gia Định",
      "NameEn": "Gia Dinh",
      "FullName": "Phường Gia Định",
      "FullNameEn": "Gia Dinh Ward",
      "CodeName": "gia_dinh",
      "ProvinceCode": "79"
    },
    {
      "Code": "26956",
      "Name": "Thạnh Mỹ Tây",
      "NameEn": "Thanh My Tay",
      "FullName": "Phường Thạnh Mỹ Tây",
      "FullNameEn": "Thanh My Tay Ward",
      "CodeName": "thanh_my_tay",
      "ProvinceCode": "79"
    },
    {
      "Code": "26968",
      "Name": "Tân Sơn Nhất",
      "NameEn": "Tan Son Nhat",
      "FullName": "Phường Tân Sơn Nhất",
      "FullNameEn": "Tan Son Nhat Ward",
      "CodeName": "tan_son_nhat",
      "ProvinceCode": "79"
    },
    {
      "Code": "26977",
      "Name": "Tân Sơn Hòa",
      "NameEn": "Tan Son Hoa",
      "FullName": "Phường Tân Sơn Hòa",
      "FullNameEn": "Tan Son Hoa Ward",
      "CodeName": "tan_son_hoa",
      "ProvinceCode": "79"
    },
    {
      "Code": "26983",
      "Name": "Bảy Hiền",
      "NameEn": "Bay Hien",
      "FullName": "Phường Bảy Hiền",
      "FullNameEn": "Bay Hien Ward",
      "CodeName": "bay_hien",
      "ProvinceCode": "79"
    },
    {
      "Code": "26995",
      "Name": "Tân Hòa",
      "NameEn": "Tan Hoa",
      "FullName": "Phường Tân Hòa",
      "FullNameEn": "Tan Hoa Ward",
      "CodeName": "tan_hoa",
      "ProvinceCode": "79"
    },
    {
      "Code": "27004",
      "Name": "Tân Bình",
      "NameEn": "Tan Binh",
      "FullName": "Phường Tân Bình",
      "FullNameEn": "Tan Binh Ward",
      "CodeName": "tan_binh",
      "ProvinceCode": "79"
    },
    {
      "Code": "27007",
      "Name": "Tân Sơn",
      "NameEn": "Tan Son",
      "FullName": "Phường Tân Sơn",
      "FullNameEn": "Tan Son Ward",
      "CodeName": "tan_son",
      "ProvinceCode": "79"
    },
    {
      "Code": "27013",
      "Name": "Tây Thạnh",
      "NameEn": "Tay Thanh",
      "FullName": "Phường Tây Thạnh",
      "FullNameEn": "Tay Thanh Ward",
      "CodeName": "tay_thanh",
      "ProvinceCode": "79"
    },
    {
      "Code": "27019",
      "Name": "Tân Sơn Nhì",
      "NameEn": "Tan Son Nhi",
      "FullName": "Phường Tân Sơn Nhì",
      "FullNameEn": "Tan Son Nhi Ward",
      "CodeName": "tan_son_nhi",
      "ProvinceCode": "79"
    },
    {
      "Code": "27022",
      "Name": "Phú Thọ Hòa",
      "NameEn": "Phu Tho Hoa",
      "FullName": "Phường Phú Thọ Hòa",
      "FullNameEn": "Phu Tho Hoa Ward",
      "CodeName": "phu_tho_hoa",
      "ProvinceCode": "79"
    },
    {
      "Code": "27028",
      "Name": "Phú Thạnh",
      "NameEn": "Phu Thanh",
      "FullName": "Phường Phú Thạnh",
      "FullNameEn": "Phu Thanh Ward",
      "CodeName": "phu_thanh",
      "ProvinceCode": "79"
    },
    {
      "Code": "27031",
      "Name": "Tân Phú",
      "NameEn": "Tan Phu",
      "FullName": "Phường Tân Phú",
      "FullNameEn": "Tan Phu Ward",
      "CodeName": "tan_phu",
      "ProvinceCode": "79"
    },
    {
      "Code": "27043",
      "Name": "Đức Nhuận",
      "NameEn": "Duc Nhuan",
      "FullName": "Phường Đức Nhuận",
      "FullNameEn": "Duc Nhuan Ward",
      "CodeName": "duc_nhuan",
      "ProvinceCode": "79"
    },
    {
      "Code": "27058",
      "Name": "Cầu Kiệu",
      "NameEn": "Cau Kieu",
      "FullName": "Phường Cầu Kiệu",
      "FullNameEn": "Cau Kieu Ward",
      "CodeName": "cau_kieu",
      "ProvinceCode": "79"
    },
    {
      "Code": "27073",
      "Name": "Phú Nhuận",
      "NameEn": "Phu Nhuan",
      "FullName": "Phường Phú Nhuận",
      "FullNameEn": "Phu Nhuan Ward",
      "CodeName": "phu_nhuan",
      "ProvinceCode": "79"
    },
    {
      "Code": "27094",
      "Name": "An Khánh",
      "NameEn": "An Khanh",
      "FullName": "Phường An Khánh",
      "FullNameEn": "An Khanh Ward",
      "CodeName": "an_khanh",
      "ProvinceCode": "79"
    },
    {
      "Code": "27097",
      "Name": "Bình Trưng",
      "NameEn": "Binh Trung",
      "FullName": "Phường Bình Trưng",
      "FullNameEn": "Binh Trung Ward",
      "CodeName": "binh_trung",
      "ProvinceCode": "79"
    },
    {
      "Code": "27112",
      "Name": "Cát Lái",
      "NameEn": "Cat Lai",
      "FullName": "Phường Cát Lái",
      "FullNameEn": "Cat Lai Ward",
      "CodeName": "cat_lai",
      "ProvinceCode": "79"
    },
    {
      "Code": "27139",
      "Name": "Xuân Hòa",
      "NameEn": "Xuan Hoa",
      "FullName": "Phường Xuân Hòa",
      "FullNameEn": "Xuan Hoa Ward",
      "CodeName": "xuan_hoa",
      "ProvinceCode": "79"
    },
    {
      "Code": "27142",
      "Name": "Nhiêu Lộc",
      "NameEn": "Nhieu Loc",
      "FullName": "Phường Nhiêu Lộc",
      "FullNameEn": "Nhieu Loc Ward",
      "CodeName": "nhieu_loc",
      "ProvinceCode": "79"
    },
    {
      "Code": "27154",
      "Name": "Bàn Cờ",
      "NameEn": "Ban Co",
      "FullName": "Phường Bàn Cờ",
      "FullNameEn": "Ban Co Ward",
      "CodeName": "ban_co",
      "ProvinceCode": "79"
    },
    {
      "Code": "27163",
      "Name": "Hòa Hưng",
      "NameEn": "Hoa Hung",
      "FullName": "Phường Hòa Hưng",
      "FullNameEn": "Hoa Hung Ward",
      "CodeName": "hoa_hung",
      "ProvinceCode": "79"
    },
    {
      "Code": "27169",
      "Name": "Diên Hồng",
      "NameEn": "Dien Hong",
      "FullName": "Phường Diên Hồng",
      "FullNameEn": "Dien Hong Ward",
      "CodeName": "dien_hong",
      "ProvinceCode": "79"
    },
    {
      "Code": "27190",
      "Name": "Vườn Lài",
      "NameEn": "Vuon Lai",
      "FullName": "Phường Vườn Lài",
      "FullNameEn": "Vuon Lai Ward",
      "CodeName": "vuon_lai",
      "ProvinceCode": "79"
    },
    {
      "Code": "27211",
      "Name": "Hòa Bình",
      "NameEn": "Hoa Binh",
      "FullName": "Phường Hòa Bình",
      "FullNameEn": "Hoa Binh Ward",
      "CodeName": "hoa_binh",
      "ProvinceCode": "79"
    },
    {
      "Code": "27226",
      "Name": "Phú Thọ",
      "NameEn": "Phu Tho",
      "FullName": "Phường Phú Thọ",
      "FullNameEn": "Phu Tho Ward",
      "CodeName": "phu_tho",
      "ProvinceCode": "79"
    },
    {
      "Code": "27232",
      "Name": "Bình Thới",
      "NameEn": "Binh Thoi",
      "FullName": "Phường Bình Thới",
      "FullNameEn": "Binh Thoi Ward",
      "CodeName": "binh_thoi",
      "ProvinceCode": "79"
    },
    {
      "Code": "27238",
      "Name": "Minh Phụng",
      "NameEn": "Minh Phung",
      "FullName": "Phường Minh Phụng",
      "FullNameEn": "Minh Phung Ward",
      "CodeName": "minh_phung",
      "ProvinceCode": "79"
    },
    {
      "Code": "27259",
      "Name": "Xóm Chiếu",
      "NameEn": "Xom Chieu",
      "FullName": "Phường Xóm Chiếu",
      "FullNameEn": "Xom Chieu Ward",
      "CodeName": "xom_chieu",
      "ProvinceCode": "79"
    },
    {
      "Code": "27265",
      "Name": "Khánh Hội",
      "NameEn": "Khanh Hoi",
      "FullName": "Phường Khánh Hội",
      "FullNameEn": "Khanh Hoi Ward",
      "CodeName": "khanh_hoi",
      "ProvinceCode": "79"
    },
    {
      "Code": "27286",
      "Name": "Vĩnh Hội",
      "NameEn": "Vinh Hoi",
      "FullName": "Phường Vĩnh Hội",
      "FullNameEn": "Vinh Hoi Ward",
      "CodeName": "vinh_hoi",
      "ProvinceCode": "79"
    },
    {
      "Code": "27301",
      "Name": "Chợ Quán",
      "NameEn": "Cho Quan",
      "FullName": "Phường Chợ Quán",
      "FullNameEn": "Cho Quan Ward",
      "CodeName": "cho_quan",
      "ProvinceCode": "79"
    },
    {
      "Code": "27316",
      "Name": "An Đông",
      "NameEn": "An Dong",
      "FullName": "Phường An Đông",
      "FullNameEn": "An Dong Ward",
      "CodeName": "an_dong",
      "ProvinceCode": "79"
    },
    {
      "Code": "27343",
      "Name": "Chợ Lớn",
      "NameEn": "Cho Lon",
      "FullName": "Phường Chợ Lớn",
      "FullNameEn": "Cho Lon Ward",
      "CodeName": "cho_lon",
      "ProvinceCode": "79"
    },
    {
      "Code": "27349",
      "Name": "Phú Lâm",
      "NameEn": "Phu Lam",
      "FullName": "Phường Phú Lâm",
      "FullNameEn": "Phu Lam Ward",
      "CodeName": "phu_lam",
      "ProvinceCode": "79"
    },
    {
      "Code": "27364",
      "Name": "Bình Phú",
      "NameEn": "Binh Phu",
      "FullName": "Phường Bình Phú",
      "FullNameEn": "Binh Phu Ward",
      "CodeName": "binh_phu",
      "ProvinceCode": "79"
    },
    {
      "Code": "27367",
      "Name": "Bình Tây",
      "NameEn": "Binh Tay",
      "FullName": "Phường Bình Tây",
      "FullNameEn": "Binh Tay Ward",
      "CodeName": "binh_tay",
      "ProvinceCode": "79"
    },
    {
      "Code": "27373",
      "Name": "Bình Tiên",
      "NameEn": "Binh Tien",
      "FullName": "Phường Bình Tiên",
      "FullNameEn": "Binh Tien Ward",
      "CodeName": "binh_tien",
      "ProvinceCode": "79"
    },
    {
      "Code": "27418",
      "Name": "Chánh Hưng",
      "NameEn": "Chanh Hung",
      "FullName": "Phường Chánh Hưng",
      "FullNameEn": "Chanh Hung Ward",
      "CodeName": "chanh_hung",
      "ProvinceCode": "79"
    },
    {
      "Code": "27424",
      "Name": "Bình Đông",
      "NameEn": "Binh Dong",
      "FullName": "Phường Bình Đông",
      "FullNameEn": "Binh Dong Ward",
      "CodeName": "binh_dong",
      "ProvinceCode": "79"
    },
    {
      "Code": "27427",
      "Name": "Phú Định",
      "NameEn": "Phu Dinh",
      "FullName": "Phường Phú Định",
      "FullNameEn": "Phu Dinh Ward",
      "CodeName": "phu_dinh",
      "ProvinceCode": "79"
    },
    {
      "Code": "27439",
      "Name": "Bình Hưng Hòa",
      "NameEn": "Binh Hung Hoa",
      "FullName": "Phường Bình Hưng Hòa",
      "FullNameEn": "Binh Hung Hoa Ward",
      "CodeName": "binh_hung_hoa",
      "ProvinceCode": "79"
    },
    {
      "Code": "27442",
      "Name": "Bình Tân",
      "NameEn": "Binh Tan",
      "FullName": "Phường Bình Tân",
      "FullNameEn": "Binh Tan Ward",
      "CodeName": "binh_tan",
      "ProvinceCode": "79"
    },
    {
      "Code": "27448",
      "Name": "Bình Trị Đông",
      "NameEn": "Binh Tri Dong",
      "FullName": "Phường Bình Trị Đông",
      "FullNameEn": "Binh Tri Dong Ward",
      "CodeName": "binh_tri_dong",
      "ProvinceCode": "79"
    },
    {
      "Code": "27457",
      "Name": "Tân Tạo",
      "NameEn": "Tan Tao",
      "FullName": "Phường Tân Tạo",
      "FullNameEn": "Tan Tao Ward",
      "CodeName": "tan_tao",
      "ProvinceCode": "79"
    },
    {
      "Code": "27460",
      "Name": "An Lạc",
      "NameEn": "An Lac",
      "FullName": "Phường An Lạc",
      "FullNameEn": "An Lac Ward",
      "CodeName": "an_lac",
      "ProvinceCode": "79"
    },
    {
      "Code": "27475",
      "Name": "Tân Hưng",
      "NameEn": "Tan Hung",
      "FullName": "Phường Tân Hưng",
      "FullNameEn": "Tan Hung Ward",
      "CodeName": "tan_hung",
      "ProvinceCode": "79"
    },
    {
      "Code": "27478",
      "Name": "Tân Thuận",
      "NameEn": "Tan Thuan",
      "FullName": "Phường Tân Thuận",
      "FullNameEn": "Tan Thuan Ward",
      "CodeName": "tan_thuan",
      "ProvinceCode": "79"
    },
    {
      "Code": "27484",
      "Name": "Phú Thuận",
      "NameEn": "Phu Thuan",
      "FullName": "Phường Phú Thuận",
      "FullNameEn": "Phu Thuan Ward",
      "CodeName": "phu_thuan",
      "ProvinceCode": "79"
    },
    {
      "Code": "27487",
      "Name": "Tân Mỹ",
      "NameEn": "Tan My",
      "FullName": "Phường Tân Mỹ",
      "FullNameEn": "Tan My Ward",
      "CodeName": "tan_my",
      "ProvinceCode": "79"
    },
    {
      "Code": "25777",
      "Name": "Dầu Tiếng",
      "NameEn": "Dau Tieng",
      "FullName": "Xã Dầu Tiếng",
      "FullNameEn": "Dau Tieng Commune",
      "CodeName": "dau_tieng",
      "ProvinceCode": "79"
    },
    {
      "Code": "25780",
      "Name": "Minh Thạnh",
      "NameEn": "Minh Thanh",
      "FullName": "Xã Minh Thạnh",
      "FullNameEn": "Minh Thanh Commune",
      "CodeName": "minh_thanh",
      "ProvinceCode": "79"
    },
    {
      "Code": "25792",
      "Name": "Long Hòa",
      "NameEn": "Long Hoa",
      "FullName": "Xã Long Hòa",
      "FullNameEn": "Long Hoa Commune",
      "CodeName": "long_hoa",
      "ProvinceCode": "79"
    },
    {
      "Code": "25807",
      "Name": "Thanh An",
      "NameEn": "Thanh An",
      "FullName": "Xã Thanh An",
      "FullNameEn": "Thanh An Commune",
      "CodeName": "thanh_an",
      "ProvinceCode": "79"
    },
    {
      "Code": "25819",
      "Name": "Trừ Văn Thố",
      "NameEn": "Tru Van Tho",
      "FullName": "Xã Trừ Văn Thố",
      "FullNameEn": "Tru Van Tho Commune",
      "CodeName": "tru_van_tho",
      "ProvinceCode": "79"
    },
    {
      "Code": "25822",
      "Name": "Bàu Bàng",
      "NameEn": "Bau Bang",
      "FullName": "Xã Bàu Bàng",
      "FullNameEn": "Bau Bang Commune",
      "CodeName": "bau_bang",
      "ProvinceCode": "79"
    },
    {
      "Code": "25858",
      "Name": "Phú Giáo",
      "NameEn": "Phu Giao",
      "FullName": "Xã Phú Giáo",
      "FullNameEn": "Phu Giao Commune",
      "CodeName": "phu_giao",
      "ProvinceCode": "79"
    },
    {
      "Code": "25864",
      "Name": "Phước Thành",
      "NameEn": "Phuoc Thanh",
      "FullName": "Xã Phước Thành",
      "FullNameEn": "Phuoc Thanh Commune",
      "CodeName": "phuoc_thanh",
      "ProvinceCode": "79"
    },
    {
      "Code": "25867",
      "Name": "An Long",
      "NameEn": "An Long",
      "FullName": "Xã An Long",
      "FullNameEn": "An Long Commune",
      "CodeName": "an_long",
      "ProvinceCode": "79"
    },
    {
      "Code": "25882",
      "Name": "Phước Hòa",
      "NameEn": "Phuoc Hoa",
      "FullName": "Xã Phước Hòa",
      "FullNameEn": "Phuoc Hoa Commune",
      "CodeName": "phuoc_hoa",
      "ProvinceCode": "79"
    },
    {
      "Code": "25906",
      "Name": "Bắc Tân Uyên",
      "NameEn": "Bac Tan Uyen",
      "FullName": "Xã Bắc Tân Uyên",
      "FullNameEn": "Bac Tan Uyen Commune",
      "CodeName": "bac_tan_uyen",
      "ProvinceCode": "79"
    },
    {
      "Code": "25909",
      "Name": "Thường Tân",
      "NameEn": "Thuong Tan",
      "FullName": "Xã Thường Tân",
      "FullNameEn": "Thuong Tan Commune",
      "CodeName": "thuong_tan",
      "ProvinceCode": "79"
    },
    {
      "Code": "26545",
      "Name": "Long Sơn",
      "NameEn": "Long Son",
      "FullName": "Xã Long Sơn",
      "FullNameEn": "Long Son Commune",
      "CodeName": "long_son",
      "ProvinceCode": "79"
    },
    {
      "Code": "26575",
      "Name": "Ngãi Giao",
      "NameEn": "Ngai Giao",
      "FullName": "Xã Ngãi Giao",
      "FullNameEn": "Ngai Giao Commune",
      "CodeName": "ngai_giao",
      "ProvinceCode": "79"
    },
    {
      "Code": "26584",
      "Name": "Xuân Sơn",
      "NameEn": "Xuan Son",
      "FullName": "Xã Xuân Sơn",
      "FullNameEn": "Xuan Son Commune",
      "CodeName": "xuan_son",
      "ProvinceCode": "79"
    },
    {
      "Code": "26590",
      "Name": "Bình Giã",
      "NameEn": "Binh Gia",
      "FullName": "Xã Bình Giã",
      "FullNameEn": "Binh Gia Commune",
      "CodeName": "binh_gia",
      "ProvinceCode": "79"
    },
    {
      "Code": "26596",
      "Name": "Châu Đức",
      "NameEn": "Chau Duc",
      "FullName": "Xã Châu Đức",
      "FullNameEn": "Chau Duc Commune",
      "CodeName": "chau_duc",
      "ProvinceCode": "79"
    },
    {
      "Code": "26608",
      "Name": "Kim Long",
      "NameEn": "Kim Long",
      "FullName": "Xã Kim Long",
      "FullNameEn": "Kim Long Commune",
      "CodeName": "kim_long",
      "ProvinceCode": "79"
    },
    {
      "Code": "26617",
      "Name": "Nghĩa Thành",
      "NameEn": "Nghia Thanh",
      "FullName": "Xã Nghĩa Thành",
      "FullNameEn": "Nghia Thanh Commune",
      "CodeName": "nghia_thanh",
      "ProvinceCode": "79"
    },
    {
      "Code": "26620",
      "Name": "Hồ Tràm",
      "NameEn": "Ho Tram",
      "FullName": "Xã Hồ Tràm",
      "FullNameEn": "Ho Tram Commune",
      "CodeName": "ho_tram",
      "ProvinceCode": "79"
    },
    {
      "Code": "26632",
      "Name": "Xuyên Mộc",
      "NameEn": "Xuyen Moc",
      "FullName": "Xã Xuyên Mộc",
      "FullNameEn": "Xuyen Moc Commune",
      "CodeName": "xuyen_moc",
      "ProvinceCode": "79"
    },
    {
      "Code": "26638",
      "Name": "Bàu Lâm",
      "NameEn": "Bau Lam",
      "FullName": "Xã Bàu Lâm",
      "FullNameEn": "Bau Lam Commune",
      "CodeName": "bau_lam",
      "ProvinceCode": "79"
    },
    {
      "Code": "26641",
      "Name": "Hòa Hội",
      "NameEn": "Hoa Hoi",
      "FullName": "Xã Hòa Hội",
      "FullNameEn": "Hoa Hoi Commune",
      "CodeName": "hoa_hoi",
      "ProvinceCode": "79"
    },
    {
      "Code": "26647",
      "Name": "Hòa Hiệp",
      "NameEn": "Hoa Hiep",
      "FullName": "Xã Hòa Hiệp",
      "FullNameEn": "Hoa Hiep Commune",
      "CodeName": "hoa_hiep",
      "ProvinceCode": "79"
    },
    {
      "Code": "26656",
      "Name": "Bình Châu",
      "NameEn": "Binh Chau",
      "FullName": "Xã Bình Châu",
      "FullNameEn": "Binh Chau Commune",
      "CodeName": "binh_chau",
      "ProvinceCode": "79"
    },
    {
      "Code": "26659",
      "Name": "Long Điền",
      "NameEn": "Long Dien",
      "FullName": "Xã Long Điền",
      "FullNameEn": "Long Dien Commune",
      "CodeName": "long_dien",
      "ProvinceCode": "79"
    },
    {
      "Code": "26662",
      "Name": "Long Hải",
      "NameEn": "Long Hai",
      "FullName": "Xã Long Hải",
      "FullNameEn": "Long Hai Commune",
      "CodeName": "long_hai",
      "ProvinceCode": "79"
    },
    {
      "Code": "26680",
      "Name": "Đất Đỏ",
      "NameEn": "Dat Do",
      "FullName": "Xã Đất Đỏ",
      "FullNameEn": "Dat Do Commune",
      "CodeName": "dat_do",
      "ProvinceCode": "79"
    },
    {
      "Code": "26686",
      "Name": "Phước Hải",
      "NameEn": "Phuoc Hai",
      "FullName": "Xã Phước Hải",
      "FullNameEn": "Phuoc Hai Commune",
      "CodeName": "phuoc_hai",
      "ProvinceCode": "79"
    },
    {
      "Code": "26728",
      "Name": "Châu Pha",
      "NameEn": "Chau Pha",
      "FullName": "Xã Châu Pha",
      "FullNameEn": "Chau Pha Commune",
      "CodeName": "chau_pha",
      "ProvinceCode": "79"
    },
    {
      "Code": "27496",
      "Name": "Tân An Hội",
      "NameEn": "Tan An Hoi",
      "FullName": "Xã Tân An Hội",
      "FullNameEn": "Tan An Hoi Commune",
      "CodeName": "tan_an_hoi",
      "ProvinceCode": "79"
    },
    {
      "Code": "27508",
      "Name": "An Nhơn Tây",
      "NameEn": "An Nhon Tay",
      "FullName": "Xã An Nhơn Tây",
      "FullNameEn": "An Nhon Tay Commune",
      "CodeName": "an_nhon_tay",
      "ProvinceCode": "79"
    },
    {
      "Code": "27511",
      "Name": "Nhuận Đức",
      "NameEn": "Nhuan Duc",
      "FullName": "Xã Nhuận Đức",
      "FullNameEn": "Nhuan Duc Commune",
      "CodeName": "nhuan_duc",
      "ProvinceCode": "79"
    },
    {
      "Code": "27526",
      "Name": "Thái Mỹ",
      "NameEn": "Thai My",
      "FullName": "Xã Thái Mỹ",
      "FullNameEn": "Thai My Commune",
      "CodeName": "thai_my",
      "ProvinceCode": "79"
    },
    {
      "Code": "27541",
      "Name": "Phú Hòa Đông",
      "NameEn": "Phu Hoa Dong",
      "FullName": "Xã Phú Hòa Đông",
      "FullNameEn": "Phu Hoa Dong Commune",
      "CodeName": "phu_hoa_dong",
      "ProvinceCode": "79"
    },
    {
      "Code": "27544",
      "Name": "Bình Mỹ",
      "NameEn": "Binh My",
      "FullName": "Xã Bình Mỹ",
      "FullNameEn": "Binh My Commune",
      "CodeName": "binh_my",
      "ProvinceCode": "79"
    },
    {
      "Code": "27553",
      "Name": "Củ Chi",
      "NameEn": "Cu Chi",
      "FullName": "Xã Củ Chi",
      "FullNameEn": "Cu Chi Commune",
      "CodeName": "cu_chi",
      "ProvinceCode": "79"
    },
    {
      "Code": "27559",
      "Name": "Hóc Môn",
      "NameEn": "Hoc Mon",
      "FullName": "Xã Hóc Môn",
      "FullNameEn": "Hoc Mon Commune",
      "CodeName": "hoc_mon",
      "ProvinceCode": "79"
    },
    {
      "Code": "27568",
      "Name": "Đông Thạnh",
      "NameEn": "Dong Thanh",
      "FullName": "Xã Đông Thạnh",
      "FullNameEn": "Dong Thanh Commune",
      "CodeName": "dong_thanh",
      "ProvinceCode": "79"
    },
    {
      "Code": "27577",
      "Name": "Xuân Thới Sơn",
      "NameEn": "Xuan Thoi Son",
      "FullName": "Xã Xuân Thới Sơn",
      "FullNameEn": "Xuan Thoi Son Commune",
      "CodeName": "xuan_thoi_son",
      "ProvinceCode": "79"
    },
    {
      "Code": "27592",
      "Name": "Bà Điểm",
      "NameEn": "Ba Diem",
      "FullName": "Xã Bà Điểm",
      "FullNameEn": "Ba Diem Commune",
      "CodeName": "ba_diem",
      "ProvinceCode": "79"
    },
    {
      "Code": "27595",
      "Name": "Tân Nhựt",
      "NameEn": "Tan Nhut",
      "FullName": "Xã Tân Nhựt",
      "FullNameEn": "Tan Nhut Commune",
      "CodeName": "tan_nhut",
      "ProvinceCode": "79"
    },
    {
      "Code": "27601",
      "Name": "Vĩnh Lộc",
      "NameEn": "Vinh Loc",
      "FullName": "Xã Vĩnh Lộc",
      "FullNameEn": "Vinh Loc Commune",
      "CodeName": "vinh_loc",
      "ProvinceCode": "79"
    },
    {
      "Code": "27604",
      "Name": "Tân Vĩnh Lộc",
      "NameEn": "Tan Vinh Loc",
      "FullName": "Xã Tân Vĩnh Lộc",
      "FullNameEn": "Tan Vinh Loc Commune",
      "CodeName": "tan_vinh_loc",
      "ProvinceCode": "79"
    },
    {
      "Code": "27610",
      "Name": "Bình Lợi",
      "NameEn": "Binh Loi",
      "FullName": "Xã Bình Lợi",
      "FullNameEn": "Binh Loi Commune",
      "CodeName": "binh_loi",
      "ProvinceCode": "79"
    },
    {
      "Code": "27619",
      "Name": "Bình Hưng",
      "NameEn": "Binh Hung",
      "FullName": "Xã Bình Hưng",
      "FullNameEn": "Binh Hung Commune",
      "CodeName": "binh_hung",
      "ProvinceCode": "79"
    },
    {
      "Code": "27628",
      "Name": "Hưng Long",
      "NameEn": "Hung Long",
      "FullName": "Xã Hưng Long",
      "FullNameEn": "Hung Long Commune",
      "CodeName": "hung_long",
      "ProvinceCode": "79"
    },
    {
      "Code": "27637",
      "Name": "Bình Chánh",
      "NameEn": "Binh Chanh",
      "FullName": "Xã Bình Chánh",
      "FullNameEn": "Binh Chanh Commune",
      "CodeName": "binh_chanh",
      "ProvinceCode": "79"
    },
    {
      "Code": "27655",
      "Name": "Nhà Bè",
      "NameEn": "Nha Be",
      "FullName": "Xã Nhà Bè",
      "FullNameEn": "Nha Be Commune",
      "CodeName": "nha_be",
      "ProvinceCode": "79"
    },
    {
      "Code": "27658",
      "Name": "Hiệp Phước",
      "NameEn": "Hiep Phuoc",
      "FullName": "Xã Hiệp Phước",
      "FullNameEn": "Hiep Phuoc Commune",
      "CodeName": "hiep_phuoc",
      "ProvinceCode": "79"
    },
    {
      "Code": "27664",
      "Name": "Cần Giờ",
      "NameEn": "Can Gio",
      "FullName": "Xã Cần Giờ",
      "FullNameEn": "Can Gio Commune",
      "CodeName": "can_gio",
      "ProvinceCode": "79"
    },
    {
      "Code": "27667",
      "Name": "Bình Khánh",
      "NameEn": "Binh Khanh",
      "FullName": "Xã Bình Khánh",
      "FullNameEn": "Binh Khanh Commune",
      "CodeName": "binh_khanh",
      "ProvinceCode": "79"
    },
    {
      "Code": "27673",
      "Name": "An Thới Đông",
      "NameEn": "An Thoi Dong",
      "FullName": "Xã An Thới Đông",
      "FullNameEn": "An Thoi Dong Commune",
      "CodeName": "an_thoi_dong",
      "ProvinceCode": "79"
    },
    {
      "Code": "27676",
      "Name": "Thạnh An",
      "NameEn": "Thanh An",
      "FullName": "Xã Thạnh An",
      "FullNameEn": "Thanh An Commune",
      "CodeName": "thanh_an",
      "ProvinceCode": "79"
    },
    {
      "Code": "26732",
      "Name": "Côn Đảo",
      "NameEn": "Con Dao",
      "FullName": "Đặc khu Côn Đảo",
      "FullNameEn": "Con Dao Special administrative region",
      "CodeName": "con_dao",
      "ProvinceCode": "79"
    }
  ]
}
